KAITUO 1B               
1 40912U 15049P   17347.86132096  .00001325  00000-0  67830-4 0  9991
2 40912  97.4512 352.8792 0014090 301.2171 178.5591 15.18280998123543
TIANWANG 1C (TW-1C)     
1 40926U 15051B   17347.75859412  .00007470  00000-0  15414-3 0  9992
2 40926  97.2091  26.0930 0009068 228.6550 223.9637 15.46117469124634
TIANWANG 1B (TW-1B)     
1 40927U 15051C   17347.87745370  .00007670  00000-0  16457-3 0  9993
2 40927  97.2176  26.1430 0008861 242.0479 111.5190 15.44959664124573
TIANWANG 1A (TW-1A)     
1 40928U 15051D   17347.79209688  .00002483  00000-0  69400-4 0  9996
2 40928  97.2092  20.3454 0010393 271.9423 142.8197 15.37582593124283
LAPAN-A2 (IO-86)        
1 40931U 15052B   17347.51210378 -.00000058  00000-0 -97165-4 0  9996
2 40931   5.9951  34.0769 0010076 265.1896  94.7132 14.76562198119510
LQSAT                   
1 40958U 15057A   17347.78788122  .00000042  00000-0  14368-4 0  9991
2 40958  97.9620  59.8121 0017398 206.9003 153.1297 14.73006508117556
CHUBUSAT-2              
1 41338U 16012B   17347.57996384  .00000382  00000-0  23244-4 0  9994
2 41338  31.0044  52.8081 0013910  35.0593 325.0956 14.99887083 99944
CHUBUSAT-3              
1 41339U 16012C   17347.55076294  .00000337  00000-0  19582-4 0  9992
2 41339  31.0094  51.8599 0013585  41.8418 318.3259 15.00080995 99921
OUFTI-1                 
1 41458U 16025C   17347.79548806  .00001475  00000-0  81049-4 0  9998
2 41458  98.1640  35.5546 0172973  49.5296 312.0865 15.04045712 89566
E-ST@R-II               
1 41459U 16025D   17347.70563498  .00000561  00000-0  33818-4 0  9990
2 41459  98.1628  35.3660 0173942  50.1042 311.5332 15.03814629 89543
AAUSAT 4                
1 41460U 16025E   17347.71340632  .00001762  00000-0  95846-4 0  9999
2 41460  98.1574  35.6207 0165347  47.5564 313.9502 15.05022532 89589
NUSAT 1 (LO-87)         
1 41557U 16033B   17347.78223388  .00001687  00000-0  64707-4 0  9998
2 41557  97.4515  67.2554 0015617  93.2665 267.0361 15.27816049 85848
BEESAT-4                
1 41619U 16040W   17347.12225624  .00001641  00000-0  75803-4 0  9997
2 41619  97.4414  47.6451 0012482 155.6967 204.4860 15.21553176 69796
PRATHAM                 
1 41783U 16059A   17347.23194860  .00000050  00000-0  19212-4 0  9993
2 41783  98.1452  46.5364 0032718 321.0005  38.8838 14.62886578 64771
ALSAT 1N                
1 41789U 16059G   17347.82355227  .00000087  00000-0  25802-4 0  9992
2 41789  98.1454  47.9728 0027439 312.8232  47.0657 14.64109752 64890
NAYIF-1 (EO-88)         
1 42017U 17008BX  17347.56105730  .00001837  00000-0  79215-4 0  9996
2 42017  97.4741  48.5370 0005408 323.7023  36.3847 15.23831070 45798
LILACSAT-1              
1 42725U 98067ME  17347.83400512  .00018630  00000-0  21743-3 0  9993
2 42725  51.6375 217.6567 0004557 241.3633 118.6903 15.61665822 31482
MAX VALIER SAT          
1 42778U 17036P   17347.60442041  .00001217  00000-0  58072-4 0  9995
2 42778  97.4303  45.1691 0012745   7.1998 352.9418 15.20901973 26293
FOX-1B (AO-91)          
1 43017U 17073E   17347.57125968  .00000507  00000-0  45144-4 0  9992
2 43017  97.6935 281.6246 0261250 155.5131 205.8755 14.77796686  3693
